IDEFIX & ARIANE 42P R/B 
1 27422U 02021B   23339.42408108  .00000529  00000+0  22196-3 0  9997
2 27422  98.5092 276.2443 0013252  96.3397 263.9295 14.29883078126038
AQUA                    
1 27424U 02022A   23340.16305589  .00001479  00000+0  32749-3 0  9992
2 27424  98.3078 284.1901 0001609  52.4415  72.6927 14.58638420148421
CZ-4B R/B               
1 27432U 02024C   23339.55171347  .00000091  00000+0  70562-4 0  9992
2 27432  99.0037  15.6683 0050027 200.8758 285.5238 14.14263181112593
MIDORI II (ADEOS-II)    
1 27597U 02056A   23339.42151874  .00000584  00000+0  25286-3 0  9997
2 27597  98.6693 282.1964 0000342 125.1146 235.0067 14.28113310 92451
H-2A R/B                
1 27601U 02056E   23339.92540532  .00000467  00000+0  18161-3 0  9995
2 27601  98.2095 321.9135 0072746 100.7106 280.9066 14.32560979 95973
CZ-4B R/B               
1 28059U 03049C   23339.86652107  .00000631  00000+0  16109-3 0  9994
2 28059  98.5843 292.1272 0048428 228.3525 131.3519 14.53450094 66719
CZ-2C R/B               
1 28222U 04012C   23339.53718219  .00010702  00000+0  47598-3 0  9994
2 28222  97.8091 339.7139 0038191  10.4603 349.7417 15.21025076 77461
SL-16 R/B               
1 28353U 04021B   23339.53451987 -.00000037  00000+0  53017-5 0  9991
2 28353  71.0001 163.8356 0006594 232.0155 128.0372 14.14372471  6155
CZ-4B R/B               
1 28415U 04035C   23340.11819527  .00005665  00000+0  31738-3 0  9994
2 28415  97.4499  13.2300 0044625 337.3153  22.6105 15.12947493 54593
CZ-2C R/B               
1 28480U 04046B   23339.83533455  .00000409  00000+0  16831-3 0  9996
2 28480  98.1378 292.3826 0142302  74.3412 287.3419 14.26174746990885
ARIANE 5 R/B            
1 28499U 04049H   23339.97396930  .00001709  00000+0  20868-3 0  9998
2 28499  98.1575 108.9061 0090034 140.3844 220.3993 14.81857258 23523
CZ-2D R/B               
1 28738U 05024B   23339.52913348  .00008419  00000+0  37824-3 0  9992
2 28738  97.3606 336.7282 0011762 106.2633 253.9897 15.21333854 13024
SUZAKU (ASTRO-EII)      
1 28773U 05025A   23340.18795053  .00018909  00000+0  53895-3 0  9998
2 28773  31.3911   4.3745 0002482 108.6464 251.4458 15.34869520 17083
ALOS (DAICHI)           
1 28931U 06002A   23339.67458979  .00001702  00000+0  32744-3 0  9998
2 28931  98.0122 292.3455 0002302  71.1940 288.9513 14.64841806952493
H-2A R/B                
1 28932U 06002B   23340.14956472  .00005654  00000+0  44955-3 0  9991
2 28932  98.2243  56.2233 0079682 124.6575 236.2190 14.98365034970357
RESURS-DK 1             
1 29228U 06021A   23340.01543425  .00002296  00000+0  16443-3 0  9997
2 29228  69.9338 199.1993 0006960 296.0863  63.9582 15.05908848963109
GENESIS 1               
1 29252U 06029A   23339.78764554  .00014299  00000+0  47692-3 0  9998
2 29252  64.5181  98.3432 0003867 250.6313 109.4398 15.31299813960753
CZ-4B R/B               
1 29507U 06046C   23339.87923324  .00003407  00000+0  23648-3 0  9996
2 29507  97.6697  12.1146 0040950 216.5706 143.2724 15.05582808935461
CZ-2C R/B               
1 31114U 07010B   23339.81238842  .00000280  00000+0  14893-3 0  9991
2 31114  98.3031 122.5857 0059676 173.4287 186.7687 14.19671079862656
COSMO-SKYMED 1          
1 31598U 07023A   23340.11078346  .00000866  00000+0  11531-3 0  9993
2 31598  97.8852 161.1097 0001296  78.3688 281.7671 14.82160051892447
GENESIS 2               
1 31789U 07028A   23339.50880974  .00013771  00000+0  46628-3 0  9993
2 31789  64.4914 144.0688 0045207 238.5048 121.1660 15.29863897907570
COSMOS 2428             
1 31792U 07029A   23339.90280320  .00000450  00000+0  26881-3 0  9990
2 31792  70.9369 134.3726 0010662 310.9466  49.0732 14.12627741847681
SL-16 R/B               
1 31793U 07029B   23339.56336576  .00000248  00000+0  15392-3 0  9998
2 31793  70.9748 106.5290 0002048 256.3485 178.9939 14.14573704848765
KORONAS-FOTON           
1 33504U 09003A   23339.25141812  .00007703  00000+0  32626-3 0  9999
2 33504  82.4404  39.5156 0016307 201.0029 159.0540 15.22882667819323
CZ-2C R/B               
1 37731U 11030B   23339.90817601  .00001421  00000+0  20449-3 0  9997
2 37731  97.7382 306.3254 0057931 148.9391 228.2346 14.76745297668179
H-2A R/B                
1 38341U 12025E   23340.18410386  .00002511  00000+0  27943-3 0  9998
2 38341  98.4348 234.6306 0053405 115.6546 245.0199 14.87121900625428
CUSAT 2 & FALCON 9 R/B  
1 39271U 13055G   23340.03282721  .00033973 -30118-6  51766-3 0  9996
2 39271  80.9426 309.5857 0382802 226.9342 129.9247 15.00334693536070
SHIJIAN-16 (SJ-16)      
1 39358U 13057A   23340.11438247  .00002620  00000+0  28845-3 0  9995
2 39358  74.9737 301.0211 0019583 303.7805  56.1515 14.87853292548747
CZ-2C R/B               
1 39364U 13059B   23339.90656126  .00041382  00000+0  61189-3 0  9993
2 39364  97.0791  23.7087 0025348 181.5206 178.5976 15.54821998562752
SL-4 R/B                
1 39679U 14021B   23340.17907560  .00009221  00000+0  37687-3 0  9996
2 39679  51.6126 324.9593 0147141  33.6551 327.3662 15.15722958530623
ALOS-2                  
1 39766U 14029A   23340.20682053  .00002543  00000+0  34734-3 0  9992
2 39766  97.9230  74.6377 0001461 101.3351 258.8025 14.79471675514992
SL-27 R/B               
1 40354U 14084B   23340.15205273  .00025351  00000+0  30627-3 0  9996
2 40354  74.7307 267.9131 0024872 182.1576 177.9543 15.60217211504155
YAOGAN-29               
1 41038U 15069A   23340.14268188  .00000737  00000+0  10125-3 0  9995
2 41038  98.0618 348.3991 0002886 125.5289 234.6193 14.81384589433732
ASTRO-H (HITOMI)        
1 41337U 16012A   23339.94085277  .00003273  00000+0  23575-3 0  9999
2 41337  31.0028 248.0777 0011409   2.1525 357.9158 15.02241554427773
HXMT (HUIYAN)           
1 42758U 17034A   23340.19517874  .00007979  00000+0  43670-3 0  9999
2 42758  43.0148 269.1805 0002209   3.3437 356.7424 15.14559156357426
CZ-2C R/B               
1 43521U 18054D   23339.86728355  .00008536  00000+0  34063-3 0  9997
2 43521  35.1501 260.3542 0064386 180.6703 179.3936 15.22507036301188
SAOCOM 1A               
1 43641U 18076A   23340.11915232  .00000756  00000+0  10152-3 0  9995
2 43641  97.8849 164.1405 0001360  90.3205 269.8164 14.82138955279229
H-2A R/B                
1 43682U 18084L   23340.15766711  .00006750  00000+0  39798-3 0  9996
2 43682  98.8754  31.5089 0047278 295.6491  63.9855 15.11056225280167
SAOCOM 1B               
1 46265U 20059A   23340.15039890  .00000749  00000+0  10063-3 0  9998
2 46265  97.8853 163.2553 0001347  93.8382 266.2985 14.82154846176621
CSS (TIANHE)            
1 48274U 21035A   23340.04125884  .00016209  00000+0  17442-3 0  9998
2 48274  41.4693 189.3089 0007922 282.3768  77.6185 15.63323894148706
COSMOS 2550             
1 48865U 21056A   23340.16322704  .00006642  00000+0  20753-3 0  9999
2 48865  67.1437  15.2878 0008381 269.4236  90.5958 15.33829601137021
2022-019U               
1 51842U 22019U   23340.21565213  .00038325  00000+0  76986-3 0  9990
2 51842  97.5212  71.5772 0043552  85.4274 275.1947 15.45506990 98923
CZ-2C R/B               
1 52794U 22058K   23339.56246901  .00008032  00000+0  36231-3 0  9997
2 52794  50.1676 112.6365 0087914  67.5737 293.4502 15.18468793 83505
CZ-2C R/B               
1 53131U 22082D   23339.87316050  .00046167  00000+0  48629-3 0  9992
2 53131  97.3341 359.5544 0023785 328.2348  31.7475 15.63783783 78465
XRISM                   
1 57800U 23137A   23339.97784630  .00003797  00000+0  30056-3 0  9992
2 57800  31.0017 166.4350 0009991  83.9960 276.1813 14.98837628 13505
